{"type": "FeatureCollection", "features": [ {"type": "Feature", "properties": {"norad_id": 34077, "name": "IRIDIUM 33 DEB", "group": "iridium-33-debris", "lat": 37.15937061260585, "lon": 51.50341900512584, "alt_km": 668.4252254767871, "timestamp": "2025-12-18T23:35:49.447239+00:00", "meta": {"OBJECT_NAME": "IRIDIUM 33 DEB", "OBJECT_ID": "1997-051CL", "EPOCH": "2025-12-18T15:47:52.285920", "MEAN_MOTION": 14.64897264, "ECCENTRICITY": 0.00095369, "INCLINATION": 86.3856, "RA_OF_ASC_NODE": 48.9006, "ARG_OF_PERICENTER": 20.7053, "MEAN_ANOMALY": 103.9539, "EPHEMERIS_TYPE": 0, "CLASSIFICATION_TYPE": "U", "NORAD_CAT_ID": 34077, "ELEMENT_SET_NO": 999, "REV_AT_EPOCH": 88419, "BSTAR": 0.00073197929, "MEAN_MOTION_DOT": 3.936e-05, "MEAN_MOTION_DDOT": 0}, "tle": {"line1": "1 34077U 97051CL  25352.65824405  .00003936  00000+0  73198-3 0  9995", "line2": "2 34077  86.3856  48.9006 0009536  20.7053 103.9539 14.64897264884197"}}, "geometry": {"type": "Point", "coordinates": [51.50341900512584, 37.15937061260585]}}, {"type": "Feature", "properties": {"norad_id": 34079, "name": "IRIDIUM 33 DEB", "group": "iridium-33-debris", "lat": 86.36013426005591, "lon": 90.73113948032926, "alt_km": 611.0055851659981, "timestamp": "2025-12-18T23:35:49.447251+00:00", "meta": {"OBJECT_NAME": "IRIDIUM 33 DEB", "OBJECT_ID": "1997-051CN", "EPOCH": "2025-12-18T08:55:11.182080", "MEAN_MOTION": 14.83670039, "ECCENTRICITY": 0.00048742, "INCLINATION": 86.3769, "RA_OF_ASC_NODE": 6.101, "ARG_OF_PERICENTER": 348.9111, "MEAN_ANOMALY": 76.4164, "EPHEMERIS_TYPE": 0, "CLASSIFICATION_TYPE": "U", "NORAD_CAT_ID": 34079, "ELEMENT_SET_NO": 999, "REV_AT_EPOCH": 89061, "BSTAR": 0.0014010479, "MEAN_MOTION_DOT": 0.00011602, "MEAN_MOTION_DDOT": 0}, "tle": {"line1": "1 34079U 97051CN  25352.37165720  .00011602  00000+0  14010-2 0  9990", "line2": "2 34079  86.3769   6.1010 0004874 348.9111  76.4164 14.83670039890615"}}, "geometry": {"type": "Point", "coordinates": [90.73113948032926, 86.36013426005591]}}, {"type": "Feature", "properties": {"norad_id": 34088, "name": "IRIDIUM 33 DEB", "group": "iridium-33-debris", "lat": -1.394827757388406, "lon": 27.767025453121704, "alt_km": 600.1363246908904, "timestamp": "2025-12-18T23:35:49.447262+00:00", "meta": {"OBJECT_NAME": "IRIDIUM 33 DEB", "OBJECT_ID": "1997-051CX", "EPOCH": "2025-12-18T14:28:14.036736", "MEAN_MOTION": 14.91642976, "ECCENTRICITY": 0.00062963, "INCLINATION": 86.3845, "RA_OF_ASC_NODE": 28.03, "ARG_OF_PERICENTER": 157.6223, "MEAN_ANOMALY": 320.458, "EPHEMERIS_TYPE": 0, "CLASSIFICATION_TYPE": "U", "NORAD_CAT_ID": 34088, "ELEMENT_SET_NO": 999, "REV_AT_EPOCH": 88829, "BSTAR": 0.001873771, "MEAN_MOTION_DOT": 0.0001888, "MEAN_MOTION_DDOT": 0}, "tle": {"line1": "1 34088U 97051CX  25352.60294024  .00018880  00000+0  18738-2 0  9992", "line2": "2 34088  86.3845  28.0300 0006296 157.6223 320.4580 14.91642976888297"}}, "geometry": {"type": "Point", "coordinates": [27.767025453121704, -1.394827757388406]}}, {"type": "Feature", "properties": {"norad_id": 34091, "name": "IRIDIUM 33 DEB", "group": "iridium-33-debris", "lat": -27.89197218602086, "lon": 62.03378229943021, "alt_km": 616.7262398813018, "timestamp": "2025-12-18T23:35:49.447273+00:00", "meta": {"OBJECT_NAME": "IRIDIUM 33 DEB", "OBJECT_ID": "1997-051DA", "EPOCH": "2025-12-18T04:16:47.373312", "MEAN_MOTION": 14.8221607, "ECCENTRICITY": 0.00338054, "INCLINATION": 86.3422, "RA_OF_ASC_NODE": 64.3429, "ARG_OF_PERICENTER": 273.6022, "MEAN_ANOMALY": 86.1335, "EPHEMERIS_TYPE": 0, "CLASSIFICATION_TYPE": "U", "NORAD_CAT_ID": 34091, "ELEMENT_SET_NO": 999, "REV_AT_EPOCH": 87947, "BSTAR": 0.0037025527, "MEAN_MOTION_DOT": 0.00029931, "MEAN_MOTION_DDOT": 0}, "tle": {"line1": "1 34091U 97051DA  25352.17832608  .00029931  00000+0  37026-2 0  9994", "line2": "2 34091  86.3422  64.3429 0033805 273.6022  86.1335 14.82216070879475"}}, "geometry": {"type": "Point", "coordinates": [62.03378229943021, -27.89197218602086]}}, {"type": "Feature", "properties": {"norad_id": 34097, "name": "IRIDIUM 33 DEB", "group": "iridium-33-debris", "lat": -58.28564692362225, "lon": -175.17372912964322, "alt_km": 795.9543450019228, "timestamp": "2025-12-18T23:35:49.447284+00:00", "meta": {"OBJECT_NAME": "IRIDIUM 33 DEB", "OBJECT_ID": "1997-051DG", "EPOCH": "2025-12-18T12:26:28.365504", "MEAN_MOTION": 14.34821944, "ECCENTRICITY": 0.00819543, "INCLINATION": 86.2001, "RA_OF_ASC_NODE": 358.8573, "ARG_OF_PERICENTER": 343.3176, "MEAN_ANOMALY": 16.5326, "EPHEMERIS_TYPE": 0, "CLASSIFICATION_TYPE": "U", "NORAD_CAT_ID": 34097, "ELEMENT_SET_NO": 999, "REV_AT_EPOCH": 87202, "BSTAR": 0.0011048687, "MEAN_MOTION_DOT": 3.274e-05, "MEAN_MOTION_DDOT": 0}, "tle": {"line1": "1 34097U 97051DG  25352.51838386  .00003274  00000+0  11049-2 0  9996", "line2": "2 34097  86.2001 358.8573 0081954 343.3176  16.5326 14.34821944872027"}}, "geometry": {"type": "Point", "coordinates": [-175.17372912964322, -58.28564692362225]}}, {"type": "Feature", "properties": {"norad_id": 34145, "name": "IRIDIUM 33 DEB", "group": "iridium-33-debris", "lat": -43.41151426026288, "lon": -33.84855096206118, "alt_km": 775.6486977834393, "timestamp": "2025-12-18T23:35:49.447294+00:00", "meta": {"OBJECT_NAME": "IRIDIUM 33 DEB", "OBJECT_ID": "1997-051DY", "EPOCH": "2025-12-18T08:48:48.486240", "MEAN_MOTION": 14.42328092, "ECCENTRICITY": 0.00557365, "INCLINATION": 86.2113, "RA_OF_ASC_NODE": 330.0199, "ARG_OF_PERICENTER": 75.968, "MEAN_ANOMALY": 284.7708, "EPHEMERIS_TYPE": 0, "CLASSIFICATION_TYPE": "U", "NORAD_CAT_ID": 34145, "ELEMENT_SET_NO": 999, "REV_AT_EPOCH": 87719, "BSTAR": 0.00092678493, "MEAN_MOTION_DOT": 3.137e-05, "MEAN_MOTION_DDOT": 0}, "tle": {"line1": "1 34145U 97051DY  25352.36722785  .00003137  00000+0  92678-3 0  9994", "line2": "2 34145  86.2113 330.0199 0055736  75.9680 284.7708 14.42328092877199"}}, "geometry": {"type": "Point", "coordinates": [-33.84855096206118, -43.41151426026288]}}, {"type": "Feature", "properties": {"norad_id": 34146, "name": "IRIDIUM 33 DEB", "group": "iridium-33-debris", "lat": 73.38775397030778, "lon": 154.45668593497982, "alt_km": 722.8299689502419, "timestamp": "2025-12-18T23:35:49.447305+00:00", "meta": {"OBJECT_NAME": "IRIDIUM 33 DEB", "OBJECT_ID": "1997-051DZ", "EPOCH": "2025-12-18T10:33:11.426976", "MEAN_MOTION": 14.49086296, "ECCENTRICITY": 0.00260309, "INCLINATION": 86.2829, "RA_OF_ASC_NODE": 347.2824, "ARG_OF_PERICENTER": 201.6816, "MEAN_ANOMALY": 311.34, "EPHEMERIS_TYPE": 0, "CLASSIFICATION_TYPE": "U", "NORAD_CAT_ID": 34146, "ELEMENT_SET_NO": 999, "REV_AT_EPOCH": 88189, "BSTAR": 0.00071063521, "MEAN_MOTION_DOT": 2.73e-05, "MEAN_MOTION_DDOT": 0}, "tle": {"line1": "1 34146U 97051DZ  25352.43971559  .00002730  00000+0  71064-3 0  9992", "line2": "2 34146  86.2829 347.2824 0026030 201.6816 311.3400 14.49086296881895"}}, "geometry": {"type": "Point", "coordinates": [154.45668593497982, 73.38775397030778]}}, {"type": "Feature", "properties": {"norad_id": 34159, "name": "IRIDIUM 33 DEB", "group": "iridium-33-debris", "lat": -55.628083216946386, "lon": 40.22446763960483, "alt_km": 756.0320561711851, "timestamp": "2025-12-18T23:35:49.447316+00:00", "meta": {"OBJECT_NAME": "IRIDIUM 33 DEB", "OBJECT_ID": "1997-051EN", "EPOCH": "2025-12-18T13:50:19.679424", "MEAN_MOTION": 14.38507625, "ECCENTRICITY": 0.00259598, "INCLINATION": 86.35, "RA_OF_ASC_NODE": 45.7526, "ARG_OF_PERICENTER": 267.136, "MEAN_ANOMALY": 92.6867, "EPHEMERIS_TYPE": 0, "CLASSIFICATION_TYPE": "U", "NORAD_CAT_ID": 34159, "ELEMENT_SET_NO": 999, "REV_AT_EPOCH": 88043, "BSTAR": 0.0002959983, "MEAN_MOTION_DOT": 9.27e-06, "MEAN_MOTION_DDOT": 0}, "tle": {"line1": "1 34159U 97051EN  25352.57661666  .00000927  00000+0  29600-3 0  9991", "line2": "2 34159  86.3500  45.7526 0025959 267.1360  92.6867 14.38507625880432"}}, "geometry": {"type": "Point", "coordinates": [40.22446763960483, -55.628083216946386]}}, {"type": "Feature", "properties": {"norad_id": 34350, "name": "IRIDIUM 33 DEB", "group": "iridium-33-debris", "lat": 52.16186872792272, "lon": 175.35446376483247, "alt_km": 719.742555120888, "timestamp": "2025-12-18T23:35:49.447327+00:00", "meta": {"OBJECT_NAME": "IRIDIUM 33 DEB", "OBJECT_ID": "1997-051ES", "EPOCH": "2025-12-18T12:05:02.649696", "MEAN_MOTION": 14.45400034, "ECCENTRICITY": 0.00232374, "INCLINATION": 86.3272, "RA_OF_ASC_NODE": 0.306, "ARG_OF_PERICENTER": 117.4224, "MEAN_ANOMALY": 35.6002, "EPHEMERIS_TYPE": 0, "CLASSIFICATION_TYPE": "U", "NORAD_CAT_ID": 34350, "ELEMENT_SET_NO": 999, "REV_AT_EPOCH": 88376, "BSTAR": 0.0002607708, "MEAN_MOTION_DOT": 9.4e-06, "MEAN_MOTION_DDOT": 0}, "tle": {"line1": "1 34350U 97051ES  25352.50350289  .00000940  00000+0  26077-3 0  9993", "line2": "2 34350  86.3272   0.3060 0023237 117.4224  35.6002 14.45400034883765"}}, "geometry": {"type": "Point", "coordinates": [175.35446376483247, 52.16186872792272]}}, {"type": "Feature", "properties": {"norad_id": 34366, "name": "IRIDIUM 33 DEB", "group": "iridium-33-debris", "lat": -69.135741628161, "lon": 37.01008152027344, "alt_km": 735.6497254145024, "timestamp": "2025-12-18T23:35:49.447337+00:00", "meta": {"OBJECT_NAME": "IRIDIUM 33 DEB", "OBJECT_ID": "1997-051FJ", "EPOCH": "2025-12-18T14:34:32.858400", "MEAN_MOTION": 14.54103617, "ECCENTRICITY": 0.00228949, "INCLINATION": 86.3697, "RA_OF_ASC_NODE": 46.7619, "ARG_OF_PERICENTER": 121.3306, "MEAN_ANOMALY": 2.8167, "EPHEMERIS_TYPE": 0, "CLASSIFICATION_TYPE": "U", "NORAD_CAT_ID": 34366, "ELEMENT_SET_NO": 999, "REV_AT_EPOCH": 88267, "BSTAR": 0.00070491505, "MEAN_MOTION_DOT": 3.008e-05, "MEAN_MOTION_DDOT": 0}, "tle": {"line1": "1 34366U 97051FJ  25352.60732475  .00003008  00000+0  70492-3 0  9990", "line2": "2 34366  86.3697  46.7619 0022894 121.3306   2.8167 14.54103617882674"}}, "geometry": {"type": "Point", "coordinates": [37.01008152027344, -69.135741628161]}}]}